GPS BIIA-10 (PRN 32)    
1 20959U 90103A   11156.54507390 -.00000008  00000-0  10000-3 0  1675
2 20959  54.7096 253.9891 0123428 314.5762  44.4740  2.00563171150311
GPS BIIA-11 (PRN 24)    
1 21552U 91047A   11154.48977492  .00000075  00000-0  10000-3 0  1312
2 21552  54.3350 192.1797 0062287 342.3171  17.5516  2.00558884145857
GPS BIIA-14 (PRN 26)    
1 22014U 92039A   11156.83893574 -.00000050  00000-0  10000-3 0   185
2 22014  56.5668 313.3891 0202694  65.6968 296.3987  2.00566555132057
GPS BIIA-15 (PRN 27)    
1 22108U 92058A   11156.94517135 -.00000060  00000-0  10000-3 0  9278
2 22108  56.2119   6.3985 0217996 288.5046  69.1770  2.00564359137237
GPS BIIA-21 (PRN 09)    
1 22700U 93042A   11156.97204854 -.00000059  00000-0  10000-3 0  2613
2 22700  56.3511   7.8844 0171309  90.2176 271.7950  2.00564823131399
GPS BIIA-23 (PRN 04)    
1 22877U 93068A   11157.10569377  .00000069  00000-0  10000-3 0  6148
2 22877  53.7504 189.0255 0094074  40.6143 320.1484  2.00565682129046
GPS BIIA-24 (PRN 06)    
1 23027U 94016A   11156.80597296  .00000063  00000-0  10000-3 0  5724
2 23027  53.6324 125.9134 0069063 313.7259  45.6764  2.00566744126340
GPS BIIA-25 (PRN 03)    
1 23833U 96019A   11157.32004062  .00000060  00000-0  10000-3 0  7714
2 23833  53.2247 121.6681 0140480  62.3386 299.0504  2.00565193111333
GPS BIIA-26 (PRN 10)    
1 23953U 96041A   11156.68857603 -.00000005  00000-0  10000-3 0  2644
2 23953  54.3783 250.2383 0100166  39.7531 321.0292  2.00571085109118
GPS BIIA-27 (PRN 30)    
1 24320U 96056A   11156.71098214 -.00000019  00000-0  00000+0 0    17
2 24320  55.0474  66.5704 0125462  87.6730 273.7852  2.00563558107777
GPS BIIR-02 (PRN 13)    
1 24876U 97035A   11156.69543753 -.00000050  00000-0  10000-3 0  7377
2 24876  56.7041 313.6648 0044995 106.9253 253.5736  2.00573155101641
GPS BIIA-28 (PRN 08)    
1 25030U 97067A   11156.82441753 -.00000056  00000-0  10000-3 0  6776
2 25030  57.0852  13.8531 0115598 185.2917 174.6384  2.00573795 99540
GPS BIIR-03 (PRN 11)    
1 25933U 99055A   11156.95322307  .00000074  00000-0  10000-3 0  1790
2 25933  50.8783 174.4128 0115506  53.0227 308.0701  2.00563474 85462
GPS BIIR-04 (PRN 20)    
1 26360U 00025A   11156.57247816 -.00000002  00000-0  10000-3 0  2651
2 26360  53.4636 246.8225 0043431  73.6318 286.9038  2.00565485 81154
GPS BIIR-05 (PRN 28)    
1 26407U 00040A   11156.90934008 -.00000012  00000-0  10000-3 0  2193
2 26407  55.8439  71.3911 0172511 252.4686 105.6572  2.00560967 79835
GPS BIIR-06 (PRN 14)    
1 26605U 00071A   11157.00614557 -.00000050  00000-0  10000-3 0  2308
2 26605  56.3036 312.2681 0059287 240.5433 118.8545  2.00564905 77433
GPS BIIR-07 (PRN 18)    
1 26690U 01004A   11156.88024431 -.00000007  00000-0  10000-3 0  1075
2 26690  53.4558 249.9026 0125400 231.8893 127.0302  2.00571808 75843
GPS BIIR-08 (PRN 16)    
1 27663U 03005A   11156.74327684 -.00000012  00000-0  10000-3 0  5261
2 27663  55.9422  70.9844 0064178 352.0209   7.8900  2.00547918 61199
GPS BIIR-09 (PRN 21)    
1 27704U 03010A   11157.29225526  .00000068  00000-0  10000-3 0  4096
2 27704  53.3840 189.4922 0180277 225.3786 133.2037  2.00553165 59996
GPS BIIR-10 (PRN 22)    
1 28129U 03058A   11156.42498192 -.00000005  00000-0  10000-3 0  9935
2 28129  53.3244 250.1564 0058617 247.7191 111.7151  2.00559481 54680
GPS BIIR-11 (PRN 19)    
1 28190U 04009A   11157.36421397  .00000077  00000-0  10000-3 0  9823
2 28190  54.9385 133.7818 0073482 359.2128   0.7512  2.00565326 52877
GPS BIIR-12 (PRN 23)    
1 28361U 04023A   11156.65130784 -.00000051  00000-0  10000-3 0  8111
2 28361  55.2533 309.6659 0072381 182.3545 177.6090  2.00552413 50942
GPS BIIR-13 (PRN 02)    
1 28474U 04045A   11157.15222119  .00000070  00000-0  10000-3 0  6860
2 28474  53.8035 188.0265 0103093 189.9926 169.8618  2.00553364 48314
GPS BIIRM-1 (PRN 17)    
1 28874U 05038A   11157.00614999  .00000072  00000-0  10000-3 0  9485
2 28874  55.0824 130.6999 0064874 224.5966 134.8554  2.00553361 41735
GPS BIIRM-2 (PRN 31)    
1 29486U 06042A   11156.61461781 -.00000059  00000-0  10000-3 0  2924
2 29486  56.1370   9.5988 0078441 304.6617  54.6471  2.00565507 34423
GPS BIIRM-3 (PRN 12)    
1 29601U 06052A   11157.06045798 -.00000014  00000-0  10000-3 0  3540
2 29601  55.8818  69.9502 0038096 346.3834  13.5361  2.00555458 33349
GPS BIIRM-4 (PRN 15)    
1 32260U 07047A   11156.87546015 -.00000052  00000-0  00000+0 0   584
2 32260  54.4224 307.9120 0034086 353.7598   6.1867  2.00570295 26735
GPS BIIRM-5 (PRN 29)    
1 32384U 07062A   11156.18646377  .00000067  00000-0  10000-3 0   900
2 32384  55.1053 131.2137 0028423 289.5685  70.0990  2.00549504 25440
GPS BIIRM-6 (PRN 07)    
1 32711U 08012A   11156.78743291 -.00000060  00000-0  10000-3 0  8956
2 32711  55.8415   9.5170 0044445 183.9375 176.0730  2.00565693 23660
GPS BIIRM-8 (PRN 05)    
1 35752U 09043A   11157.24376392 -.00000007  00000-0  10000-3 0  6112
2 35752  54.6679 248.8585 0021851   7.2512 352.8332  2.00563586 13257
GPS BIIF-1  (PRN 25)    
1 36585U 10022A   11157.60299191 -.00000019  00000-0  10000-3 0  4512
2 36585  55.2416  68.2127 0006908  37.1324 322.9472  2.00566730  7501
